      2.10          N: GNSS NAV DATA                        RINEX VERSION / TYPE
fic2rin                                 06/19/2023 00:18:00 PGM / RUN BY / DATE
                                                            END OF HEADER
19 23  6 18 23 59 44.0  .332438852638D-03  .511590769747D-11  .000000000000D+00
     .140000000000D+02  .134281250000D+03  .393087802256D-08 -.240037650042D+01
     .732950866222D-05  .948353915010D-02  .453554093838D-05  .515363283730D+04
     .863840000000D+05 -.577419996262D-07  .935723694362D+00  .135973095894D-06
     .973036992611D+00  .296562500000D+03  .232818454632D+01 -.781318259327D-08
     .334299639208D-09  .100000000000D+01  .226700000000D+04  .000000000000D+00
     .240000000000D+01  .000000000000D+00 -.153668224812D-07  .140000000000D+02
     .792000000000D+05  .400000000000D+01
21 23  6 18 23 59 44.0  .152988359332D-03 -.341060513165D-12  .000000000000D+00
     .350000000000D+02 -.193750000000D+01  .457876215239D-08  .173079648612D+01
    -.335276126862D-06  .246548498981D-01 -.117346644402D-05  .515361317635D+04
     .863840000000D+05  .314787030220D-06  .179056756353D+01  .221654772758D-06
     .961552333749D+00  .399937500000D+03 -.747552370283D+00 -.820069873488D-08
    -.159649507186D-09  .100000000000D+01  .226700000000D+04  .000000000000D+00
     .240000000000D+01  .000000000000D+00 -.102445483208D-07  .350000000000D+02
     .792000000000D+05  .400000000000D+01
17 23  6 18 23 59 44.0  .718801748008D-03  .125055521494D-11  .000000000000D+00
     .240000000000D+02  .124125000000D+03  .394373570099D-08  .169504839025D+01
     .641681253910D-05  .135054482380D-01  .525824725628D-05  .515378386688D+04
     .863840000000D+05  .236555933952D-06  .891194176717D+00 -.260770320892D-06
     .974000303685D+00  .279812500000D+03 -.140541236561D+01 -.778210987040D-08
     .319299014371D-09  .100000000000D+01  .226700000000D+04  .000000000000D+00
     .240000000000D+01  .000000000000D+00 -.111758708954D-07  .240000000000D+02
     .792000000000D+05  .400000000000D+01
1  23  6 19  0  0  0.0  .177558045834D-03 -.227373675443D-11  .000000000000D+00
     .200000000000D+02 -.325937500000D+02  .416517349619D-08 -.427161336939D+00
    -.147707760334D-05  .129279277753D-01  .523403286934D-06  .515364081955D+04
     .864000000000D+05 -.260770320892D-07  .189488927288D+01  .188127160072D-06
     .989827789935D+00  .389125000000D+03  .976291245101D+00 -.834427614402D-08
     .428589281035D-10  .100000000000D+01  .226700000000D+04  .000000000000D+00
     .240000000000D+01  .000000000000D+00  .465661287308D-08  .200000000000D+02
     .792000000000D+05  .400000000000D+01
2  23  6 19  0  0  0.0 -.584482681006D-03  .363797880709D-11  .000000000000D+00
     .540000000000D+02 -.975000000000D+01  .446732893932D-08  .223028914498D+01
    -.735744833946D-06  .159399096156D-01 -.101327896118D-05  .515356256676D+04
     .864000000000D+05  .204890966415D-06  .179572770423D+01 -.465661287308D-07
     .967250778563D+00  .402125000000D+03 -.138230211183D+01 -.812855287257D-08
    -.221437795202D-10  .100000000000D+01  .226700000000D+04  .000000000000D+00
     .240000000000D+01  .000000000000D+00 -.176951289177D-07  .540000000000D+02
     .792000000000D+05  .400000000000D+01
8  23  6 19  0  0  0.0 -.128061976284D-03 -.181898940355D-11  .000000000000D+00
     .100000000000D+02  .146062500000D+03  .427232081645D-08  .176257238489D+01
     .751577317715D-05  .845698022749D-02  .576674938202D-05  .515371805763D+04
     .864000000000D+05 -.819563865662D-07  .801798693677D+00  .800937414169D-07
     .958474463829D+00  .266187500000D+03  .270752392804D+00 -.804604943597D-08
     .140362989539D-09  .100000000000D+01  .226700000000D+04  .000000000000D+00
     .240000000000D+01  .000000000000D+00  .512227416039D-08  .100000000000D+02
     .792000000000D+05  .400000000000D+01
7  23  6 19  0  0  0.0  .148626044393D-03 -.102318153949D-10  .000000000000D+00
     .190000000000D+02 -.387500000000D+01  .514485716109D-08 -.107470122349D+01
    -.145286321640D-06  .174352222821D-01  .499188899994D-05  .515373049164D+04
     .864000000000D+05  .255182385445D-06 -.126234275618D+01  .346451997757D-06
     .949882443125D+00  .275812500000D+03 -.218755487797D+01 -.823284293095D-08
    -.330370904131D-09  .100000000000D+01  .226700000000D+04  .000000000000D+00
     .240000000000D+01  .000000000000D+00 -.111758708954D-07  .190000000000D+02
     .792000000000D+05  .400000000000D+01
5  23  6 19  0  0  0.0 -.131635926664D-03 -.147792889038D-11  .000000000000D+00
     .790000000000D+02 -.128281250000D+03  .422731894194D-08  .216793846754D+01
    -.669993460178D-05  .601692881901D-02  .794976949692D-05  .515369367218D+04
     .864000000000D+05 -.745058059692D-08  .287839953447D+01 -.122934579849D-06
     .966726236120D+00  .231437500000D+03  .116205199179D+01 -.772067874012D-08
     .325013538118D-10  .100000000000D+01  .226700000000D+04  .000000000000D+00
     .240000000000D+01  .000000000000D+00 -.111758708954D-07  .790000000000D+02
     .792000000000D+05  .400000000000D+01
3  23  6 19  0  0  0.0 -.265448819846D-03  .138697942020D-10  .000000000000D+00
     .660000000000D+02 -.134875000000D+03  .395766485263D-08 -.159078917969D+01
    -.686571002007D-05  .495218520518D-02  .788643956184D-05  .515365697479D+04
     .864000000000D+05  .968575477600D-07  .292524784457D+01  .186264514923D-07
     .979720086623D+00  .237343750000D+03  .104112788556D+01 -.762210320548D-08
     .971469037013D-10  .100000000000D+01  .226700000000D+04  .000000000000D+00
     .240000000000D+01  .000000000000D+00  .186264514923D-08  .660000000000D+02
     .792000000000D+05  .400000000000D+01
6  23  6 19  0  0  0.0  .584274530411D-03 -.216004991671D-11  .000000000000D+00
     .910000000000D+02 -.335312500000D+02  .404338270883D-08 -.239734251951D+00
    -.189617276192D-05  .272212212440D-02  .689178705215D-07  .515368650055D+04
     .864000000000D+05  .111758708954D-07  .188655413912D+01 -.186264514923D-07
     .989028349092D+00  .386625000000D+03 -.745896414311D+00 -.813819613139D-08
     .592881838765D-10  .100000000000D+01  .226700000000D+04  .000000000000D+00
     .340000000000D+01  .000000000000D+00  .372529029846D-08  .910000000000D+02
     .792000000000D+05  .400000000000D+01
4  23  6 19  0  0  0.0  .720801763237D-04  .103455022327D-10  .000000000000D+00
     .186000000000D+03 -.115312500000D+02  .465233664564D-08  .131443549739D+01
    -.391155481339D-06  .239919160958D-02  .831298530102D-05  .515365511322D+04
     .864000000000D+05  .128522515297D-06 -.227762866639D+01  .186264514923D-08
     .962799626480D+00  .219250000000D+03 -.298507302215D+01 -.787997108957D-08
     .471448209139D-09  .100000000000D+01  .226700000000D+04  .000000000000D+00
     .240000000000D+01  .000000000000D+00 -.465661287308D-08  .186000000000D+03
     .792000000000D+05  .400000000000D+01
18 23  6 19  0  0  0.0 -.312984455377D-03 -.148929757415D-10  .000000000000D+00
     .500000000000D+02 -.456875000000D+02  .440125475850D-08 -.246493329928D+00
    -.227615237236D-05  .332278816495D-02  .156462192535D-06  .515366978073D+04
     .864000000000D+05  .931322574615D-08  .189555191479D+01 -.242143869400D-07
     .973723001711D+00  .380781250000D+03  .312391367335D+01 -.831713215622D-08
     .450018745087D-10  .100000000000D+01  .226700000000D+04  .000000000000D+00
     .240000000000D+01  .000000000000D+00 -.838190317154D-08  .500000000000D+02
     .792000000000D+05  .400000000000D+01
10 23  6 19  0  0  0.0 -.417274422944D-04 -.159161572810D-11  .000000000000D+00
     .730000000000D+02 -.136281250000D+03  .386301805306D-08 -.251578330328D+01
    -.717490911484D-05  .853071233723D-02  .896863639355D-05  .515369670105D+04
     .864000000000D+05  .102445483208D-06  .292260639822D+01 -.175088644028D-06
     .979448630470D+00  .214781250000D+03 -.243522853556D+01 -.757102964949D-08
     .867893294096D-10  .100000000000D+01  .226700000000D+04  .000000000000D+00
     .240000000000D+01  .000000000000D+00  .232830643654D-08  .730000000000D+02
     .792000000000D+05  .400000000000D+01
31 23  6 19  0  0  0.0 -.218434724957D-03 -.682121026330D-12  .000000000000D+00
     .400000000000D+02 -.803125000000D+01  .498770775805D-08 -.198162133069D+01
    -.417232513428D-06  .103211745154D-01  .522285699844D-05  .515356779671D+04
     .864000000000D+05  .875443220139D-07 -.124224886538D+01 -.968575477600D-07
     .953969730908D+00  .274906250000D+03  .543694020570D+00 -.797390357366D-08
    -.196436753808D-09  .100000000000D+01  .226700000000D+04  .000000000000D+00
     .240000000000D+01  .000000000000D+00 -.135041773319D-07  .400000000000D+02
     .792000000000D+05  .400000000000D+01
27 23  6 19  0  0  0.0  .137593597174D-04 -.761701812735D-11  .000000000000D+00
     .250000000000D+02  .149687500000D+03  .415445876417D-08  .179532674910D+01
     .758841633797D-05  .115470087621D-01  .555254518986D-05  .515367215157D+04
     .864000000000D+05 -.229105353355D-06  .825332465176D+00  .186264514923D-08
     .967356493412D+00  .274625000000D+03  .742402747963D+00 -.804104922769D-08
     .207151485834D-09  .100000000000D+01  .226700000000D+04  .000000000000D+00
     .240000000000D+01  .000000000000D+00  .186264514923D-08  .250000000000D+02
     .792000000000D+05  .400000000000D+01
29 23  6 19  0  0  0.0 -.603217631578D-03 -.113686837722D-11  .000000000000D+00
     .670000000000D+02  .127187500000D+03  .391337729359D-08  .181737250470D+01
     .665523111820D-05  .260474497918D-02  .418908894062D-05  .515375673676D+04
     .864000000000D+05  .186264514923D-08  .905334363976D+00  .124797224998D-06
     .976256067772D+00  .307062500000D+03  .243202220973D+01 -.781425406648D-08
     .264653881039D-09  .100000000000D+01  .226700000000D+04  .000000000000D+00
     .240000000000D+01  .000000000000D+00 -.102445483208D-07  .670000000000D+02
     .792000000000D+05  .400000000000D+01
